start=new Date('2023-04-21T00:00:00.000Z').valueOf();
sats=[{"OBJECT_NAME":"STARLINK-3568","RCS_SIZE":"LARGE","SITE":"AFETR","COUNTRY_CODE":"US","APOAPSIS":"540.475","EPOCH":"2023-04-20T07:16:52.355136","RA_OF_ASC_NODE":"72.4398","ARG_OF_PERICENTER":"95.5777","REV_AT_EPOCH":"6387","TIME_SYSTEM":"UTC","OBJECT_TYPE":"PAYLOAD","OBJECT_ID":"2022-022E","MEAN_MOTION":"15.08845784","GP_ID":"230436567","FILE":"3891000","TLE_LINE1":"1 51856U 22022E   23110.30338374  .00001084  00000-0  86173-4 0  9993","MEAN_MOTION_DDOT":"0.0000000000000","EPHEMERIS_TYPE":"0","DECAY_DATE":null,"MEAN_MOTION_DOT":"0.00001084","BSTAR":"0.00008617300000","MEAN_ELEMENT_THEORY":"SGP4","INCLINATION":"53.2174","ELEMENT_SET_NO":"999","MEAN_ANOMALY":"264.5338","NORAD_CAT_ID":"51856","CLASSIFICATION_TYPE":"U","ECCENTRICITY":"0.00010800","TLE_LINE2":"2 51856  53.2174  72.4398 0001080  95.5777 264.5338 15.08845784 63876","REF_FRAME":"TEME","PERIAPSIS":"538.981","CENTER_NAME":"EARTH","PERIOD":"95.437","SEMIMAJOR_AXIS":"6917.863","LAUNCH_DATE":"2022-03-03"},{"EPHEMERIS_TYPE":"0","MEAN_ELEMENT_THEORY":"SGP4","BSTAR":"-0.00005515300000","MEAN_MOTION_DOT":"-0.00001165","DECAY_DATE":null,"MEAN_ANOMALY":"287.1341","ELEMENT_SET_NO":"999","INCLINATION":"53.2166","CLASSIFICATION_TYPE":"U","NORAD_CAT_ID":"51857","ECCENTRICITY":"0.00015780","REF_FRAME":"TEME","PERIAPSIS":"538.676","TLE_LINE2":"2 51857  53.2166  71.0051 0001578  72.9824 287.1341 15.08832595 63896","SEMIMAJOR_AXIS":"6917.903","PERIOD":"95.438","CENTER_NAME":"EARTH","LAUNCH_DATE":"2022-03-03","OBJECT_NAME":"STARLINK-3571","SITE":"AFETR","RCS_SIZE":"LARGE","COUNTRY_CODE":"US","EPOCH":"2023-04-20T14:57:55.069056","APOAPSIS":"540.860","REV_AT_EPOCH":"6389","ARG_OF_PERICENTER":"72.9824","RA_OF_ASC_NODE":"71.0051","TIME_SYSTEM":"UTC","FILE":"3891109","GP_ID":"230461885","MEAN_MOTION":"15.08832595","OBJECT_ID":"2022-022F","OBJECT_TYPE":"PAYLOAD","MEAN_MOTION_DDOT":"0.0000000000000","TLE_LINE1":"1 51857U 22022F   23110.62355404 -.00001165  00000-0 -55153-4 0  9998"},{"INCLINATION":"53.2171","ELEMENT_SET_NO":"999","MEAN_ANOMALY":"271.7371","NORAD_CAT_ID":"51858","CLASSIFICATION_TYPE":"U","EPHEMERIS_TYPE":"0","DECAY_DATE":null,"MEAN_MOTION_DOT":"-0.00000600","BSTAR":"-0.00001961400000","MEAN_ELEMENT_THEORY":"SGP4","CENTER_NAME":"EARTH","PERIOD":"95.438","SEMIMAJOR_AXIS":"6917.905","LAUNCH_DATE":"2022-03-03","ECCENTRICITY":"0.00016180","TLE_LINE2":"2 51858  53.2171  70.9861 0001618  88.3807 271.7371 15.08831832 63892","PERIAPSIS":"538.651","REF_FRAME":"TEME","COUNTRY_CODE":"US","EPOCH":"2023-04-20T15:03:13.331232","APOAPSIS":"540.890","OBJECT_NAME":"STARLINK-3563","RCS_SIZE":"LARGE","SITE":"AFETR","OBJECT_TYPE":"PAYLOAD","OBJECT_ID":"2022-022G","MEAN_MOTION":"15.08831832","GP_ID":"230462137","FILE":"3891109","TLE_LINE1":"1 51858U 22022G   23110.62723763 -.00000600  00000-0 -19614-4 0  9991","MEAN_MOTION_DDOT":"0.0000000000000","RA_OF_ASC_NODE":"70.9861","ARG_OF_PERICENTER":"88.3807","REV_AT_EPOCH":"6389","TIME_SYSTEM":"UTC"},{"REV_AT_EPOCH":"6397","RA_OF_ASC_NODE":"62.7086","ARG_OF_PERICENTER":"88.0042","TIME_SYSTEM":"UTC","GP_ID":"230429110","FILE":"3890827","OBJECT_ID":"2022-022H","OBJECT_TYPE":"PAYLOAD","MEAN_MOTION":"15.08844250","TLE_LINE1":"1 51859U 22022H   23110.24638634  .00002855  00000-0  19737-3 0  9999","MEAN_MOTION_DDOT":"0.0000000000000","OBJECT_NAME":"STARLINK-3560","SITE":"AFETR","RCS_SIZE":"LARGE","COUNTRY_CODE":"US","APOAPSIS":"540.569","EPOCH":"2023-04-20T05:54:47.779776","ECCENTRICITY":"0.00012090","TLE_LINE2":"2 51859  53.2168  62.7086 0001209  88.0042 272.1088 15.08844250 63978","REF_FRAME":"TEME","PERIAPSIS":"538.896","PERIOD":"95.437","SEMIMAJOR_AXIS":"6917.867","CENTER_NAME":"EARTH","LAUNCH_DATE":"2022-03-03","EPHEMERIS_TYPE":"0","MEAN_ELEMENT_THEORY":"SGP4","BSTAR":"0.00019737000000","DECAY_DATE":null,"MEAN_MOTION_DOT":"0.00002855","MEAN_ANOMALY":"272.1088","INCLINATION":"53.2168","ELEMENT_SET_NO":"999","CLASSIFICATION_TYPE":"U","NORAD_CAT_ID":"51859"},{"MEAN_ELEMENT_THEORY":"SGP4","BSTAR":"0.00034590000000","MEAN_MOTION_DOT":"0.00005224","DECAY_DATE":null,"EPHEMERIS_TYPE":"0","CLASSIFICATION_TYPE":"U","NORAD_CAT_ID":"51860","MEAN_ANOMALY":"277.5793","ELEMENT_SET_NO":"999","INCLINATION":"53.2174","PERIAPSIS":"538.906","REF_FRAME":"TEME","TLE_LINE2":"2 51860  53.2174  62.6700 0001148  82.5329 277.5793 15.08854679 63932","ECCENTRICITY":"0.00011480","LAUNCH_DATE":"2022-03-03","SEMIMAJOR_AXIS":"6917.836","PERIOD":"95.437","CENTER_NAME":"EARTH","SITE":"AFETR","RCS_SIZE":"LARGE","OBJECT_NAME":"STARLINK-3559","APOAPSIS":"540.495","EPOCH":"2023-04-20T06:04:00.401952","COUNTRY_CODE":"US","TIME_SYSTEM":"UTC","REV_AT_EPOCH":"6393","ARG_OF_PERICENTER":"82.5329","RA_OF_ASC_NODE":"62.6700","MEAN_MOTION_DDOT":"0.0000000000000","TLE_LINE1":"1 51860U 22022J   23110.25278243  .00005224  00000-0  34590-3 0  9995","FILE":"3890827","GP_ID":"230429361","MEAN_MOTION":"15.08854679","OBJECT_ID":"2022-022J","OBJECT_TYPE":"PAYLOAD"},{"PERIOD":"95.437","SEMIMAJOR_AXIS":"6917.839","CENTER_NAME":"EARTH","LAUNCH_DATE":"2022-03-03","ECCENTRICITY":"0.00012820","TLE_LINE2":"2 51861  53.2179  62.4383 0001282 104.8463 255.2671 15.08853575 63852","PERIAPSIS":"538.817","REF_FRAME":"TEME","MEAN_ANOMALY":"255.2671","INCLINATION":"53.2179","ELEMENT_SET_NO":"999","CLASSIFICATION_TYPE":"U","NORAD_CAT_ID":"51861","EPHEMERIS_TYPE":"0","BSTAR":"0.00051748000000","MEAN_ELEMENT_THEORY":"SGP4","DECAY_DATE":null,"MEAN_MOTION_DOT":"0.00007960","GP_ID":"230430112","FILE":"3890827","OBJECT_ID":"2022-022K","OBJECT_TYPE":"PAYLOAD","MEAN_MOTION":"15.08853575","TLE_LINE1":"1 51861U 22022K   23110.30430198  .00007960  00000-0  51748-3 0  9994","MEAN_MOTION_DDOT":"0.0000000000000","REV_AT_EPOCH":"6385","RA_OF_ASC_NODE":"62.4383","ARG_OF_PERICENTER":"104.8463","TIME_SYSTEM":"UTC","COUNTRY_CODE":"US","EPOCH":"2023-04-20T07:18:11.691072","APOAPSIS":"540.591","OBJECT_NAME":"STARLINK-3562","SITE":"AFETR","RCS_SIZE":"LARGE"},{"REV_AT_EPOCH":"6398","ARG_OF_PERICENTER":"76.7033","RA_OF_ASC_NODE":"62.6850","TIME_SYSTEM":"UTC","FILE":"3890827","GP_ID":"230428361","MEAN_MOTION":"15.08841600","OBJECT_ID":"2022-022L","OBJECT_TYPE":"PAYLOAD","MEAN_MOTION_DDOT":"0.0000000000000","TLE_LINE1":"1 51862U 22022L   23110.24911040  .00000045  00000-0  20950-4 0  9997","OBJECT_NAME":"STARLINK-3508","SITE":"AFETR","RCS_SIZE":"LARGE","COUNTRY_CODE":"US","EPOCH":"2023-04-20T05:58:43.138560","APOAPSIS":"540.771","ECCENTRICITY":"0.00014900","PERIAPSIS":"538.710","REF_FRAME":"TEME","TLE_LINE2":"2 51862  53.2182  62.6850 0001490  76.7033 283.4125 15.08841600 63986","SEMIMAJOR_AXIS":"6917.875","PERIOD":"95.437","CENTER_NAME":"EARTH","LAUNCH_DATE":"2022-03-03","EPHEMERIS_TYPE":"0","BSTAR":"0.00002095000000","MEAN_ELEMENT_THEORY":"SGP4","MEAN_MOTION_DOT":"0.00000045","DECAY_DATE":null,"MEAN_ANOMALY":"283.4125","ELEMENT_SET_NO":"999","INCLINATION":"53.2182","CLASSIFICATION_TYPE":"U","NORAD_CAT_ID":"51862"},{"COUNTRY_CODE":"US","EPOCH":"2023-04-20T07:07:35.443200","APOAPSIS":"540.466","OBJECT_NAME":"STARLINK-3555","RCS_SIZE":"LARGE","SITE":"AFETR","OBJECT_TYPE":"PAYLOAD","OBJECT_ID":"2022-022M","MEAN_MOTION":"15.08850175","GP_ID":"230428611","FILE":"3890827","TLE_LINE1":"1 51863U 22022M   23110.29693800  .00001414  00000-0  10690-3 0  9994","MEAN_MOTION_DDOT":"0.0000000000000","RA_OF_ASC_NODE":"62.4708","ARG_OF_PERICENTER":"101.2470","REV_AT_EPOCH":"6393","TIME_SYSTEM":"UTC","INCLINATION":"53.2176","ELEMENT_SET_NO":"999","MEAN_ANOMALY":"258.8644","NORAD_CAT_ID":"51863","CLASSIFICATION_TYPE":"U","EPHEMERIS_TYPE":"0","DECAY_DATE":null,"MEAN_MOTION_DOT":"0.00001414","BSTAR":"0.00010690000000","MEAN_ELEMENT_THEORY":"SGP4","CENTER_NAME":"EARTH","PERIOD":"95.437","SEMIMAJOR_AXIS":"6917.849","LAUNCH_DATE":"2022-03-03","ECCENTRICITY":"0.00010860","TLE_LINE2":"2 51863  53.2176  62.4708 0001086 101.2470 258.8644 15.08850175 63934","PERIAPSIS":"538.963","REF_FRAME":"TEME"},{"TLE_LINE1":"1 51864U 22022N   23110.24174600  .00003358  00000-0  22890-3 0  9996","MEAN_MOTION_DDOT":"0.0000000000000","GP_ID":"230429862","FILE":"3890827","OBJECT_TYPE":"PAYLOAD","OBJECT_ID":"2022-022N","MEAN_MOTION":"15.08849624","TIME_SYSTEM":"UTC","REV_AT_EPOCH":"6397","RA_OF_ASC_NODE":"62.7185","ARG_OF_PERICENTER":"94.1427","EPOCH":"2023-04-20T05:48:06.854400","APOAPSIS":"540.390","COUNTRY_CODE":"US","SITE":"AFETR","RCS_SIZE":"LARGE","OBJECT_NAME":"STARLINK-3548","LAUNCH_DATE":"2022-03-03","PERIOD":"95.437","SEMIMAJOR_AXIS":"6917.851","CENTER_NAME":"EARTH","TLE_LINE2":"2 51864  53.2167  62.7185 0000975  94.1427 265.9676 15.08849624 63970","REF_FRAME":"TEME","PERIAPSIS":"539.041","ECCENTRICITY":"0.00009750","CLASSIFICATION_TYPE":"U","NORAD_CAT_ID":"51864","MEAN_ANOMALY":"265.9676","INCLINATION":"53.2167","ELEMENT_SET_NO":"999","MEAN_ELEMENT_THEORY":"SGP4","BSTAR":"0.00022890000000","DECAY_DATE":null,"MEAN_MOTION_DOT":"0.00003358","EPHEMERIS_TYPE":"0"},{"REV_AT_EPOCH":"6393","RA_OF_ASC_NODE":"62.5020","ARG_OF_PERICENTER":"88.3624","TIME_SYSTEM":"UTC","GP_ID":"230429612","FILE":"3890827","OBJECT_ID":"2022-022P","OBJECT_TYPE":"PAYLOAD","MEAN_MOTION":"15.08851442","TLE_LINE1":"1 51865U 22022P   23110.28958364  .00004120  00000-0  27670-3 0  9997","MEAN_MOTION_DDOT":"0.0000000000000","OBJECT_NAME":"STARLINK-3503","SITE":"AFETR","RCS_SIZE":"LARGE","COUNTRY_CODE":"US","EPOCH":"2023-04-20T06:57:00.026496","APOAPSIS":"540.430","ECCENTRICITY":"0.00010400","TLE_LINE2":"2 51865  53.2174  62.5020 0001040  88.3624 271.7487 15.08851442 63935","REF_FRAME":"TEME","PERIAPSIS":"538.991","PERIOD":"95.437","SEMIMAJOR_AXIS":"6917.845","CENTER_NAME":"EARTH","LAUNCH_DATE":"2022-03-03","EPHEMERIS_TYPE":"0","MEAN_ELEMENT_THEORY":"SGP4","BSTAR":"0.00027670000000","DECAY_DATE":null,"MEAN_MOTION_DOT":"0.00004120","MEAN_ANOMALY":"271.7487","INCLINATION":"53.2174","ELEMENT_SET_NO":"999","CLASSIFICATION_TYPE":"U","NORAD_CAT_ID":"51865"}];
